NORAD_CAT_ID,OBJECT_NAME,OBJECT_TYPE,EPOCH,MEAN_MOTION,ECCENTRICITY,INCLINATION,RA_OF_ASC_NODE,ARG_OF_PERICENTER,MEAN_ANOMALY,BSTAR,MEAN_MOTION_DOT,MEAN_MOTION_DDOT,TLE_LINE0,TLE_LINE1,TLE_LINE2,SEMIMAJOR_AXIS,PERIOD,APOGEE,PERIGEE,DECAYED
55918.0,STARLINK-5867,PAYLOAD,2023-05-01 22:00:00,15.3943751,0.0003545,70.0011,55.5183,269.5052,69.9437,-0.02712,-0.00973401,0.0,0 STARLINK-5867,1 55918U 23037E   23121.91667824 -.00973401  00000-0 -27120-1 0  9994,2 55918  70.0011  55.5183 0003545 269.5052  69.9437 15.39437510  1302,6825.909,93.541,450.193,445.354,0.0
55918.0,STARLINK-5867,PAYLOAD,2023-05-02 00:00:02,15.39245455,0.0003476,70.001,55.2946,273.0734,168.1115,-0.026178,-0.0093688,0.0,0 STARLINK-5867,1 55918U 23037E   23122.00002315 -.00936880  00000-0 -26178-1 0  9995,2 55918  70.0010  55.2946 0003476 273.0734 168.1115 15.39245455  7592,6826.476,93.552,450.714,445.968,0.0
55918.0,STARLINK-5867,PAYLOAD,2023-05-02 14:00:01,15.38059342,0.0003328,70.0012,53.7298,269.7414,161.6964,-0.024495,-0.00850118,0.0,0 STARLINK-5867,1 55918U 23037E   23122.58335648 -.00850118  00000-0 -24495-1 0  9995,2 55918  70.0012  53.7298 0003328 269.7414 161.6964 15.38059342  1300,6829.985,93.624,454.123,449.577,0.0
55918.0,STARLINK-5867,PAYLOAD,2023-05-02 22:00:00,15.37481367,0.0003305,70.0014,52.837,268.6495,207.48,-0.029058,-0.00977742,0.0,0 STARLINK-5867,1 55918U 23037E   23122.91667824 -.00977742  00000-0 -29058-1 0  9999,2 55918  70.0014  52.8370 0003305 268.6495 207.4800 15.37481367  1308,6831.697,93.66,455.82,451.304,0.0
55918.0,STARLINK-5867,PAYLOAD,2023-05-03 14:00:01,15.3610134,0.0003226,70.0015,51.0536,267.9842,295.3767,-0.025981,-0.00846478,0.0,0 STARLINK-5867,1 55918U 23037E   23123.58334491 -.00846478  00000-0 -25981-1 0  9996,2 55918  70.0015  51.0536 0003226 267.9842 295.3767 15.36101340  7846,6835.788,93.744,459.858,455.448,0.0
55918.0,STARLINK-5867,PAYLOAD,2023-05-03 22:00:00,15.35511171,0.0003302,70.0019,50.1634,268.673,337.1026,-0.030203,-0.00955561,0.0,0 STARLINK-5867,1 55918U 23037E   23123.91667824 -.00955561  00000-0 -30203-1 0  9999,2 55918  70.0019  50.1634 0003302 268.6730 337.1026 15.35511171  1302,6837.54,93.78,461.662,457.147,0.0
55918.0,STARLINK-5867,PAYLOAD,2023-05-04 06:00:00,15.34833203,0.000337,70.0016,49.274,273.552,13.8729,-0.028905,-0.00899651,0.0,0 STARLINK-5867,1 55918U 23037E   23124.25001157 -.00899651  00000-0 -28905-1 0  9991,2 55918  70.0016  49.2740 0003370 273.5520  13.8729 15.34833203  7949,6839.553,93.821,463.723,459.113,0.0
55918.0,STARLINK-5867,PAYLOAD,2023-05-04 14:00:01,15.34145399,0.0003319,70.0017,48.3854,267.1498,61.2195,-0.027685,-0.00847195,0.0,0 STARLINK-5867,1 55918U 23037E   23124.58335648 -.00847195  00000-0 -27685-1 0  9992,2 55918  70.0017  48.3854 0003319 267.1498  61.2195 15.34145399  1302,6841.597,93.863,465.733,461.191,0.0
55918.0,STARLINK-5867,PAYLOAD,2023-05-04 22:00:01,15.33553964,0.0003376,70.0022,47.4977,269.7953,98.6429,-0.032108,-0.00954418,0.0,0 STARLINK-5867,1 55918U 23037E   23124.91668981 -.00954418  00000-0 -32108-1 0  9991,2 55918  70.0022  47.4977 0003376 269.7953  98.6429 15.33553964  1305,6843.356,93.9,467.531,462.911,0.0
55918.0,STARLINK-5867,PAYLOAD,2023-05-05 00:00:00,15.33356529,0.0003293,70.0021,47.276,272.9966,195.2899,-0.030458,-0.00904064,0.0,0 STARLINK-5867,1 55918U 23037E   23125.00001157 -.00904064  00000-0 -30458-1 0  9996,2 55918  70.0021  47.2760 0003293 272.9966 195.2899 15.33356529  8052,6843.943,93.912,468.062,463.555,0.0
55918.0,STARLINK-5867,PAYLOAD,2023-05-05 22:00:00,15.31591468,0.0003163,70.0022,44.84,271.5189,212.4158,-0.033943,-0.0094887,0.0,0 STARLINK-5867,1 55918U 23037E   23125.91667824 -.00948870  00000-0 -33943-1 0  9990,2 55918  70.0022  44.8400 0003163 271.5189 212.4158 15.31591468  1307,6849.201,94.02,473.232,468.899,0.0
55918.0,STARLINK-5867,PAYLOAD,2023-05-06 02:00:01,15.31221741,0.0003224,70.0021,44.3979,273.3784,49.1419,-0.031182,-0.00868388,0.0,0 STARLINK-5867,1 55918U 23037E   23126.08334491 -.00868388  00000-0 -31182-1 0  9998,2 55918  70.0021  44.3979 0003224 273.3784  49.1419 15.31221741  8228,6850.303,94.043,474.377,469.959,0.0
55918.0,STARLINK-5867,PAYLOAD,2023-05-06 16:00:00,15.30096454,0.000323,70.0019,42.8521,265.9292,30.0532,-0.032828,-0.00881625,0.0,0 STARLINK-5867,1 55918U 23037E   23126.66667824 -.00881625  00000-0 -32828-1 0  9998,2 55918  70.0019  42.8521 0003230 265.9292  30.0532 15.30096454  1306,6853.661,94.112,477.74,473.313,0.0
55918.0,STARLINK-5867,PAYLOAD,2023-05-07 06:00:00,15.28976822,0.0003121,70.0018,41.3086,273.812,353.2444,-0.035857,-0.00926165,0.0,0 STARLINK-5867,1 55918U 23037E   23127.25001157 -.00926165  00000-0 -35857-1 0  9999,2 55918  70.0018  41.3086 0003121 273.8120 353.2444 15.28976822  8405,6857.007,94.181,481.012,476.732,0.0
55918.0,STARLINK-5867,PAYLOAD,2023-05-07 14:00:01,15.2827687,0.000324,70.0017,40.4296,266.8336,34.0632,-0.033052,-0.00842372,0.0,0 STARLINK-5867,1 55918U 23037E   23127.58334491 -.00842372  00000-0 -33052-1 0  9997,2 55918  70.0017  40.4296 0003240 266.8336  34.0632 15.28276870  1301,6859.1,94.224,483.188,478.743,0.0
55918.0,STARLINK-5867,PAYLOAD,2023-05-07 22:00:00,15.27666815,0.0003251,70.0019,39.5485,269.6865,64.2488,-0.037578,-0.00943668,0.0,0 STARLINK-5867,1 55918U 23037E   23127.91667824 -.00943668  00000-0 -37578-1 0  9990,2 55918  70.0019  39.5485 0003251 269.6865  64.2488 15.27666815  1307,6860.926,94.261,485.022,480.561,0.0
55918.0,STARLINK-5867,PAYLOAD,2023-05-08 14:00:01,15.26322522,0.0003243,70.0016,37.7917,269.9741,127.7047,-0.035247,-0.0084604,0.0,0 STARLINK-5867,1 55918U 23037E   23128.58334491 -.00846040  00000-0 -35247-1 0  9992,2 55918  70.0016  37.7917 0003243 269.9741 127.7047 15.26322522  8600,6864.954,94.344,489.045,484.593,0.0
55918.0,STARLINK-5867,PAYLOAD,2023-05-08 22:00:00,15.25706197,0.0003208,70.0016,36.9145,272.3191,156.0552,-0.039666,-0.00938877,0.0,0 STARLINK-5867,1 55918U 23037E   23128.91667824 -.00938877  00000-0 -39666-1 0  9997,2 55918  70.0016  36.9145 0003208 272.3191 156.0552 15.25706197  8656,6866.803,94.383,490.871,486.465,0.0
55918.0,STARLINK-5867,PAYLOAD,2023-05-09 14:00:01,15.24370831,0.0003088,70.0013,35.1632,270.6945,216.7264,-0.037673,-0.00852077,0.0,0 STARLINK-5867,1 55918U 23037E   23129.58334491 -.00852077  00000-0 -37673-1 0  9995,2 55918  70.0013  35.1632 0003088 270.6945 216.7264 15.24370831  1309,6870.812,94.465,494.799,490.556,0.0
55918.0,STARLINK-5867,PAYLOAD,2023-05-10 14:00:01,15.22418382,0.0003016,70.0011,32.5422,268.2855,301.8357,-0.040222,-0.00857818,0.0,0 STARLINK-5867,1 55918U 23037E   23130.58334491 -.00857818  00000-0 -40222-1 0  9999,2 55918  70.0011  32.5422 0003016 268.2855 301.8357 15.22418382  1300,6876.685,94.586,500.624,496.476,0.0
55918.0,STARLINK-5867,PAYLOAD,2023-05-10 22:00:00,15.21779739,0.0003073,70.0014,31.6703,270.996,325.1342,-0.043536,-0.00918085,0.0,0 STARLINK-5867,1 55918U 23037E   23130.91667824 -.00918085  00000-0 -43536-1 0  9990,2 55918  70.0014  31.6703 0003073 270.9960 325.1342 15.21779739  1303,6878.609,94.626,502.588,498.361,0.0
55918.0,STARLINK-5867,PAYLOAD,2023-05-11 14:00:01,15.20464186,0.0003129,70.0013,29.9289,267.1224,18.6603,-0.042844,-0.00872545,0.0,0 STARLINK-5867,1 55918U 23037E   23131.58334491 -.00872545  00000-0 -42844-1 0  9996,2 55918  70.0013  29.9289 0003129 267.1224  18.6603 15.20464186  1304,6882.576,94.708,506.595,502.288,0.0
55918.0,STARLINK-5867,PAYLOAD,2023-05-11 16:00:00,15.2033616,0.0003185,70.0013,29.7116,268.6964,113.0628,-0.046194,-0.00932583,0.0,0 STARLINK-5867,1 55918U 23037E   23131.66667824 -.00932583  00000-0 -46194-1 0  9995,2 55918  70.0013  29.7116 0003185 268.6964 113.0628 15.20336160  9079,6882.963,94.716,507.02,502.636,0.0
55918.0,STARLINK-5867,PAYLOAD,2023-05-11 22:00:00,15.19820931,0.0003164,70.0015,29.0596,270.8471,38.5993,-0.045834,-0.00912982,0.0,0 STARLINK-5867,1 55918U 23037E   23131.91667824 -.00912982  00000-0 -45834-1 0  9994,2 55918  70.0015  29.0596 0003164 270.8471  38.5993 15.19820931  1307,6884.518,94.748,508.562,504.205,0.0
55918.0,STARLINK-5867,PAYLOAD,2023-05-12 12:00:00,15.18655727,0.0003059,70.0015,27.5402,268.2941,350.6672,-0.044185,-0.00854943,0.0,0 STARLINK-5867,1 55918U 23037E   23132.50001157 -.00854943  00000-0 -44185-1 0  9991,2 55918  70.0015  27.5402 0003059 268.2941 350.6672 15.18655727  1302,6888.039,94.821,512.011,507.797,0.0
55918.0,STARLINK-5867,PAYLOAD,2023-05-12 22:00:00,15.17863565,0.0003186,70.0017,26.4568,272.1962,103.5249,-0.048433,-0.00911613,0.0,0 STARLINK-5867,1 55918U 23037E   23132.91667824 -.00911613  00000-0 -48433-1 0  9993,2 55918  70.0017  26.4568 0003186 272.1962 103.5249 15.17863565  1308,6890.436,94.87,514.496,510.105,0.0
55918.0,STARLINK-5867,PAYLOAD,2023-05-13 00:00:02,15.17688658,0.000302,70.0017,26.2403,275.2685,195.7213,-0.04712,-0.00884423,0.0,0 STARLINK-5867,1 55918U 23037E   23133.00002315 -.00884423  00000-0 -47120-1 0  9992,2 55918  70.0017  26.2403 0003020 275.2685 195.7213 15.17688658  9273,6890.965,94.881,514.911,510.749,0.0
55918.0,STARLINK-5867,PAYLOAD,2023-05-13 14:00:01,15.16557043,0.0003173,70.0018,24.726,269.4876,146.4967,-0.048673,-0.00884388,0.0,0 STARLINK-5867,1 55918U 23037E   23133.58334491 -.00884388  00000-0 -48673-1 0  9992,2 55918  70.0018  24.7260 0003173 269.4876 146.4967 15.16557043  9365,6894.393,94.952,518.445,514.07,0.0
55918.0,STARLINK-5867,PAYLOAD,2023-05-13 22:00:00,15.15905088,0.000312,70.0021,23.862,273.2048,161.7509,-0.051068,-0.0090889,0.0,0 STARLINK-5867,1 55918U 23037E   23133.91667824 -.00908890  00000-0 -51068-1 0  9995,2 55918  70.0021  23.8620 0003120 273.2048 161.7509 15.15905088  1308,6896.369,94.993,520.386,516.082,0.0
55918.0,STARLINK-5867,PAYLOAD,2023-05-14 08:00:01,15.15115752,0.0002951,70.0018,22.7829,272.9298,274.6796,-0.054716,-0.00948928,0.0,0 STARLINK-5867,1 55918U 23037E   23134.33335648 -.00948928  00000-0 -54716-1 0  9997,2 55918  70.0018  22.7829 0002951 272.9298 274.6796 15.15115752  9487,6898.764,95.042,522.665,518.593,0.0
